SKYSAT-C1               
1 41601U 16040C   26198.04294710  .00005058  00000+0  14290-3 0  9992
2 41601  96.9547 228.1510 0000261 236.3178 123.8043 15.36766876562450
LAPAN-A3                
1 41603U 16040E   26198.27850307  .00001695  00000+0  54977-4 0  9999
2 41603  97.1506 193.4414 0008251 266.9245  93.1054 15.33285380559425
GAOFEN-3                
1 41727U 16049A   26198.26337942  .00000139  00000+0  55475-4 0  9995
2 41727  98.4012 205.5960 0001772  83.5517 276.5874 14.42219286522984
SKYSAT-C4               
1 41771U 16058B   26197.98278752  .00010140  00000+0  18584-3 0  9997
2 41771  96.9161 218.5236 0003474 115.0118 245.1496 15.49473911550089
SKYSAT-C5               
1 41772U 16058C   26197.64663659  .00003977  00000+0  12421-3 0  9999
2 41772  97.0452 236.9643 0002707 156.7043 203.4323 15.33730928548268
SKYSAT-C2               
1 41773U 16058D   26198.29708365  .00006528  00000+0  15146-3 0  9998
2 41773  97.0158 219.2705 0001113 343.1238  16.9973 15.42708898549690
SKYSAT-C3               
1 41774U 16058E   26198.03754474  .00014444  00000+0  22667-3 0  9995
2 41774  96.8991 227.7582 0002623 130.7873 229.3610 15.53761650550745
ALSAT-1B                
1 41785U 16059C   26198.27977622  .00000245  00000+0  46208-4 0  9998
2 41785  97.7750 205.7454 0010418 123.8819 236.3381 14.72295905525007
PATHFINDER 1            
1 41787U 16059E   26197.99766161  .00000258  00000+0  53123-4 0  9990
2 41787  97.8177 195.9301 0029877 110.2471 250.1951 14.67694301524088
SCATSAT 1               
1 41790U 16059H   26198.10528542  .00000639  00000+0  90578-4 0  9995
2 41790  98.1177 262.1782 0055343 150.4877 209.9478 14.79589993106017
GOKTURK 1A              
1 41875U 16073A   26198.27487778  .00000176  00000+0  43565-4 0  9998
2 41875  98.1214  92.4730 0001432  80.4303 279.7060 14.62794060513228
RESOURCESAT-2A          
1 41877U 16074A   26198.33523645  .00000172  00000+0  98769-4 0  9994
2 41877  98.7521 271.5916 0002289  23.5921 336.5361 14.21609112498583
CARTOSAT-2D             
1 41948U 17008A   26198.25813091  .00001906  00000+0  93485-4 0  9995
2 41948  97.4085 256.9998 0006166 132.7830 227.3925 15.19292245522146
SENTINEL-2B             
1 42063U 17013A   26198.27744161 -.00000146  00000+0 -38975-4 0  9993
2 42063  98.5686 272.6258 0001197  91.3599 268.7721 14.30814908488949
CARTOSAT-2E             
1 42767U 17036C   26198.34180078  .00002022  00000+0  99103-4 0  9991
2 42767  97.4257 257.6445 0003518 179.3577 180.7662 15.19264036502724
FORMOSAT-5              
1 42920U 17049A   26198.25870868  .00000035  00000+0  19876-4 0  9990
2 42920  98.2245 272.8991 0011198 357.4657   2.6480 14.50908143471034
SENTINEL-5P             
1 42969U 17064A   26198.22886611  .00000010  00000+0  25841-4 0  9992
2 42969  98.7929 140.1476 0001162  93.4118 266.7191 14.19523435453826
SKYSAT-C11              
1 42987U 17068A   26197.97438805  .00017693  00000+0  22543-3 0  9995
2 42987  97.4385 348.1412 0001195 155.9503 204.1810 15.59388848487885
SKYSAT-C10              
1 42988U 17068B   26197.89009115  .00005733  00000+0  17054-3 0  9998
2 42988  97.4545 335.0424 0001492 111.5176 248.6227 15.35136658486918
SKYSAT-C9               
1 42989U 17068C   26197.89658958  .00007246  00000+0  17055-3 0  9996
2 42989  97.4465 336.2721 0008498  39.2579 320.9283 15.42239505487335
SKYSAT-C8               
1 42990U 17068D   26198.33642784  .00005680  00000+0  15664-3 0  9992
2 42990  97.4563 335.4097 0001238 104.0587 256.0795 15.37516339486948
SKYSAT-C7               
1 42991U 17068E   26198.33097902  .00005469  00000+0  15111-3 0  9991
2 42991  97.4574 336.3959 0005580  13.9890 346.1508 15.37466247487000
SKYSAT-C6               
1 42992U 17068F   26197.95405848  .00004818  00000+0  14802-3 0  9994
2 42992  97.4611 335.8590 0005071  85.1818 275.0004 15.34187293486888
CARTOSAT-2F             
1 43111U 18004A   26198.30858507  .00002692  00000+0  13126-3 0  9999
2 43111  97.4768 257.6467 0002416 129.9496 230.1951 15.19183025471900
GAOFEN-1 02             
1 43259U 18031A   26198.32098484 -.00000125  00000+0 -10544-4 0  9997
2 43259  98.0512 260.7614 0001481 273.5385  86.5656 14.76471684447147
GAOFEN-1 03             
1 43260U 18031B   26198.29909551  .00000302  00000+0  50790-4 0  9993
2 43260  98.0502 260.5945 0002245   9.7194 350.4059 14.76464058447135
GAOFEN-1 04             
1 43262U 18031D   26198.00370697  .00000312  00000+0  52267-4 0  9999
2 43262  98.0514 260.4945 0001186  56.3841 303.7482 14.76472043447087
SENTINEL-3B             
1 43437U 18039A   26198.20528445  .00000049  00000+0  38460-4 0  9995
2 43437  98.6235 265.3046 0001192 119.8366 240.2933 14.26736730428409
GAOFEN-5 01             
1 43461U 18043A   26197.92975694  .00000128  00000+0  36363-4 0  9995
2 43461  98.4591 170.1443 0001996  28.3067 331.8241 14.60623956436037
GAOFEN-6                
1 43484U 18048A   26198.29746006  .00000267  00000+0  45900-4 0  9990
2 43484  98.0956 261.0043 0012101  75.6207 284.6345 14.76385282437833
