OBJECT_NAME,OBJECT_ID,EPOCH,MEAN_MOTION,ECCENTRICITY,INCLINATION,RA_OF_ASC_NODE,ARG_OF_PERICENTER,MEAN_ANOMALY,EPHEMERIS_TYPE,CLASSIFICATION_TYPE,NORAD_CAT_ID,ELEMENT_SET_NO,REV_AT_EPOCH,BSTAR,MEAN_MOTION_DOT,MEAN_MOTION_DDOT
SKYSAT-C1,2016-040C,2026-07-17T01:01:50.629440,15.36766876,.00002619,96.9547,228.1510,236.3178,123.8043,0,U,41601,999,56245,.14289609E-3,.5058E-4,0
LAPAN-A3,2016-040E,2026-07-17T06:41:02.665248,15.33285380,.00082519,97.1506,193.4414,266.9245,93.1054,0,U,41603,999,55942,.54976929E-4,.1695E-4,0
GAOFEN-3,2016-049A,2026-07-17T06:19:15.981888,14.42219286,.00017728,98.4012,205.5960,83.5517,276.5874,0,U,41727,999,52298,.55474598E-4,.139E-5,0
SKYSAT-C4,2016-058B,2026-07-16T23:35:12.841728,15.49473911,.0003474,96.9161,218.5236,115.0118,245.1496,0,U,41771,999,55008,.18583763E-3,.1014E-3,0
SKYSAT-C5,2016-058C,2026-07-16T15:31:09.401376,15.33730928,.00027071,97.0452,236.9643,156.7043,203.4323,0,U,41772,999,54826,.12420733E-3,.3977E-4,0
SKYSAT-C2,2016-058D,2026-07-17T07:07:48.027360,15.42708898,.00011135,97.0158,219.2705,343.1238,16.9973,0,U,41773,999,54969,.15146324E-3,.6528E-4,0
SKYSAT-C3,2016-058E,2026-07-17T00:54:03.865536,15.53761650,.00026234,96.8991,227.7582,130.7873,229.3610,0,U,41774,999,55074,.2266722E-3,.14444E-3,0
ALSAT-1B,2016-059C,2026-07-17T06:42:52.665408,14.72295905,.00104181,97.7750,205.7454,123.8819,236.3381,0,U,41785,999,52500,.4620762E-4,.245E-5,0
PATHFINDER 1,2016-059E,2026-07-16T23:56:37.963104,14.67694301,.00298772,97.8177,195.9301,110.2471,250.1951,0,U,41787,999,52408,.53122775E-4,.258E-5,0
SCATSAT 1,2016-059H,2026-07-17T02:31:36.660288,14.79589993,.00553436,98.1177,262.1782,150.4877,209.9478,0,U,41790,999,10601,.90577876E-4,.639E-5,0
GOKTURK 1A,2016-073A,2026-07-17T06:35:49.440192,14.62794060,.0001432,98.1214,92.4730,80.4303,279.7060,0,U,41875,999,51322,.43564552E-4,.176E-5,0
RESOURCESAT-2A,2016-074A,2026-07-17T08:02:44.429280,14.21609112,.00022893,98.7521,271.5916,23.5921,336.5361,0,U,41877,999,49858,.98769381E-4,.172E-5,0
CARTOSAT-2D,2017-008A,2026-07-17T06:11:42.510624,15.19292245,.00061663,97.4085,256.9998,132.7830,227.3925,0,U,41948,999,52214,.93484957E-4,.1906E-4,0
SENTINEL-2B,2017-013A,2026-07-17T06:39:30.955104,14.30814908,.00011971,98.5686,272.6258,91.3599,268.7721,0,U,42063,999,48894,-.38975161E-4,-.146E-5,0
CARTOSAT-2E,2017-036C,2026-07-17T08:12:11.587392,15.19264036,.00035187,97.4257,257.6445,179.3577,180.7662,0,U,42767,999,50272,.99103397E-4,.2022E-4,0
FORMOSAT-5,2017-049A,2026-07-17T06:12:32.429952,14.50908143,.00111982,98.2245,272.8991,357.4657,2.6480,0,U,42920,999,47103,.19876344E-4,.35E-6,0
SENTINEL-5P,2017-064A,2026-07-17T05:29:34.031904,14.19523435,.00011624,98.7929,140.1476,93.4118,266.7191,0,U,42969,999,45382,.25841305E-4,.1E-6,0
SKYSAT-C11,2017-068A,2026-07-16T23:23:07.127520,15.59388848,.00011959,97.4385,348.1412,155.9503,204.1810,0,U,42987,999,48788,.22542888E-3,.17693E-3,0
SKYSAT-C10,2017-068B,2026-07-16T21:21:43.875360,15.35136658,.00014923,97.4545,335.0424,111.5176,248.6227,0,U,42988,999,48691,.17053822E-3,.5733E-4,0
SKYSAT-C9,2017-068C,2026-07-16T21:31:05.339712,15.42239505,.0008498,97.4465,336.2721,39.2579,320.9283,0,U,42989,999,48733,.1705472E-3,.7246E-4,0
SKYSAT-C8,2017-068D,2026-07-17T08:04:27.365376,15.37516339,.00012384,97.4563,335.4097,104.0587,256.0795,0,U,42990,999,48694,.1566432E-3,.568E-4,0
SKYSAT-C7,2017-068E,2026-07-17T07:56:36.587328,15.37466247,.000558,97.4574,336.3959,13.9890,346.1508,0,U,42991,999,48700,.15111353E-3,.5469E-4,0
SKYSAT-C6,2017-068F,2026-07-16T22:53:50.652672,15.34187293,.00050717,97.4611,335.8590,85.1818,275.0004,0,U,42992,999,48688,.14802371E-3,.4818E-4,0
CARTOSAT-2F,2018-004A,2026-07-17T07:24:21.750048,15.19183025,.00024163,97.4768,257.6467,129.9496,230.1951,0,U,43111,999,47190,.13126207E-3,.2692E-4,0
GAOFEN-1 02,2018-031A,2026-07-17T07:42:13.090176,14.76471684,.00014817,98.0512,260.7614,273.5385,86.5656,0,U,43259,999,44714,-.1054425E-4,-.125E-5,0
GAOFEN-1 03,2018-031B,2026-07-17T07:10:41.852064,14.76464058,.00022457,98.0502,260.5945,9.7194,350.4059,0,U,43260,999,44713,.50790421E-4,.302E-5,0
GAOFEN-1 04,2018-031D,2026-07-17T00:05:20.282208,14.76472043,.0001186,98.0514,260.4945,56.3841,303.7482,0,U,43262,999,44708,.52267059E-4,.312E-5,0
SENTINEL-3B,2018-039A,2026-07-17T04:55:36.576480,14.26736730,.00011929,98.6235,265.3046,119.8366,240.2933,0,U,43437,999,42840,.38460351E-4,.49E-6,0
GAOFEN-5 01,2018-043A,2026-07-16T22:18:50.999616,14.60623956,.00019962,98.4591,170.1443,28.3067,331.8241,0,U,43461,999,43603,.36363198E-4,.128E-5,0
GAOFEN-6,2018-048A,2026-07-17T07:08:20.549184,14.76385282,.00121012,98.0956,261.0043,75.6207,284.6345,0,U,43484,999,43783,.45900147E-4,.267E-5,0
